STARLINK-31572          
1 59333U 24057P   26068.39908259 -.00001927  00000+0 -60542-4 0  9999
2 59333  42.9963 200.0400 0000332 181.9274 178.1577 15.27578400109661
YAOGAN-43 01G           
1 60464U 24148G   26068.44348481  .00010133  00000+0  35873-3 0  9993
2 60464  35.0006  62.0013 0007382 306.3543  53.6492 15.28332833 87004
